CCSDS_OMM_VERS = 2.0
CREATION_DATE  = 
ORIGINATOR     = 

OBJECT_NAME    = UNKNOWN
OBJECT_ID      = 
CENTER_NAME    = EARTH
REF_FRAME      = TEME
TIME_SYSTEM    = UTC
MEAN_ELEMENT_THEORY = SGP/SGP4

EPOCH          = 2026-01-06T06:02:38.025600
MEAN_MOTION    = 12.95816999
ECCENTRICITY   = .00499224
INCLINATION    = 90.2466
RA_OF_ASC_NODE = 6.9542
ARG_OF_PERICENTER = 245.1003
MEAN_ANOMALY   = 114.4923

EPHEMERIS_TYPE = 0
CLASSIFICATION_TYPE = U
NORAD_CAT_ID   = 270019
ELEMENT_SET_NO = 999
REV_AT_EPOCH   = 28895
BSTAR          = -.81025647E-4
MEAN_MOTION_DOT = -.16E-6
MEAN_MOTION_DDOT = 0

CCSDS_OMM_VERS = 2.0
CREATION_DATE  = 
ORIGINATOR     = 

OBJECT_NAME    = UNKNOWN
OBJECT_ID      = 
CENTER_NAME    = EARTH
REF_FRAME      = TEME
TIME_SYSTEM    = UTC
MEAN_ELEMENT_THEORY = SGP/SGP4

EPOCH          = 2026-01-16T13:52:16.687488
MEAN_MOTION    = 13.96327427
ECCENTRICITY   = .00197213
INCLINATION    = 82.5430
RA_OF_ASC_NODE = 137.4677
ARG_OF_PERICENTER = 78.1041
MEAN_ANOMALY   = 282.2336

EPHEMERIS_TYPE = 0
CLASSIFICATION_TYPE = U
NORAD_CAT_ID   = 270020
ELEMENT_SET_NO = 999
REV_AT_EPOCH   = 31182
BSTAR          = .11646577E-2
MEAN_MOTION_DOT = .1622E-4
MEAN_MOTION_DDOT = 0

CCSDS_OMM_VERS = 2.0
CREATION_DATE  = 
ORIGINATOR     = 

OBJECT_NAME    = UNKNOWN
OBJECT_ID      = 
CENTER_NAME    = EARTH
REF_FRAME      = TEME
TIME_SYSTEM    = UTC
MEAN_ELEMENT_THEORY = SGP/SGP4

EPOCH          = 2026-01-18T02:22:24.007872
MEAN_MOTION    = 12.65853453
ECCENTRICITY   = .00546484
INCLINATION    = 82.7183
RA_OF_ASC_NODE = 161.3596
ARG_OF_PERICENTER = 352.7482
MEAN_ANOMALY   = 7.2815

EPHEMERIS_TYPE = 0
CLASSIFICATION_TYPE = U
NORAD_CAT_ID   = 270021
ELEMENT_SET_NO = 999
REV_AT_EPOCH   = 28366
BSTAR          = .1356586E-2
MEAN_MOTION_DOT = .267E-5
MEAN_MOTION_DDOT = 0

CCSDS_OMM_VERS = 2.0
CREATION_DATE  = 
ORIGINATOR     = 

OBJECT_NAME    = UNKNOWN
OBJECT_ID      = 
CENTER_NAME    = EARTH
REF_FRAME      = TEME
TIME_SYSTEM    = UTC
MEAN_ELEMENT_THEORY = SGP/SGP4

EPOCH          = 2026-01-16T20:16:04.853568
MEAN_MOTION    = 12.65276809
ECCENTRICITY   = .05768221
INCLINATION    = 100.1392
RA_OF_ASC_NODE = 229.5919
ARG_OF_PERICENTER = 357.4339
MEAN_ANOMALY   = 2.3827

EPHEMERIS_TYPE = 0
CLASSIFICATION_TYPE = U
NORAD_CAT_ID   = 270022
ELEMENT_SET_NO = 999
REV_AT_EPOCH   = 28017
BSTAR          = .13580539E-1
MEAN_MOTION_DOT = .4822E-4
MEAN_MOTION_DDOT = 0

CCSDS_OMM_VERS = 2.0
CREATION_DATE  = 
ORIGINATOR     = 

OBJECT_NAME    = UNKNOWN
OBJECT_ID      = 
CENTER_NAME    = EARTH
REF_FRAME      = TEME
TIME_SYSTEM    = UTC
MEAN_ELEMENT_THEORY = SGP/SGP4

EPOCH          = 2026-01-10T20:40:26.007168
MEAN_MOTION    = 12.45716667
ECCENTRICITY   = .00240525
INCLINATION    = 73.6346
RA_OF_ASC_NODE = 219.0889
ARG_OF_PERICENTER = 15.6098
MEAN_ANOMALY   = 344.5685

EPHEMERIS_TYPE = 0
CLASSIFICATION_TYPE = U
NORAD_CAT_ID   = 270023
ELEMENT_SET_NO = 999
REV_AT_EPOCH   = 27834
BSTAR          = .11091629E-2
MEAN_MOTION_DOT = .142E-5
MEAN_MOTION_DDOT = 0

CCSDS_OMM_VERS = 2.0
CREATION_DATE  = 
ORIGINATOR     = 

OBJECT_NAME    = UNKNOWN
OBJECT_ID      = 
CENTER_NAME    = EARTH
REF_FRAME      = TEME
TIME_SYSTEM    = UTC
MEAN_ELEMENT_THEORY = SGP/SGP4

EPOCH          = 2026-01-05T19:18:32.126400
MEAN_MOTION    = 12.62476679
ECCENTRICITY   = .000083
INCLINATION    = 51.9814
RA_OF_ASC_NODE = 52.8413
ARG_OF_PERICENTER = 124.1134
MEAN_ANOMALY   = 235.9812

EPHEMERIS_TYPE = 0
CLASSIFICATION_TYPE = U
NORAD_CAT_ID   = 270024
ELEMENT_SET_NO = 999
REV_AT_EPOCH   = 28195
BSTAR          = .20615479E-3
MEAN_MOTION_DOT = -.67E-6
MEAN_MOTION_DDOT = 0

CCSDS_OMM_VERS = 2.0
CREATION_DATE  = 
ORIGINATOR     = 

OBJECT_NAME    = UNKNOWN
OBJECT_ID      = 
CENTER_NAME    = EARTH
REF_FRAME      = TEME
TIME_SYSTEM    = UTC
MEAN_ELEMENT_THEORY = SGP/SGP4

EPOCH          = 2026-01-16T14:43:23.335392
MEAN_MOTION    = 14.22262294
ECCENTRICITY   = .0074785
INCLINATION    = 98.5925
RA_OF_ASC_NODE = 340.1452
ARG_OF_PERICENTER = 334.3141
MEAN_ANOMALY   = 25.4330

EPHEMERIS_TYPE = 0
CLASSIFICATION_TYPE = U
NORAD_CAT_ID   = 270025
ELEMENT_SET_NO = 999
REV_AT_EPOCH   = 31770
BSTAR          = .44713973E-3
MEAN_MOTION_DOT = .978E-5
MEAN_MOTION_DDOT = 0

CCSDS_OMM_VERS = 2.0
CREATION_DATE  = 
ORIGINATOR     = 

OBJECT_NAME    = UNKNOWN
OBJECT_ID      = 
CENTER_NAME    = EARTH
REF_FRAME      = TEME
TIME_SYSTEM    = UTC
MEAN_ELEMENT_THEORY = SGP/SGP4

EPOCH          = 2026-01-13T00:52:02.320608
MEAN_MOTION    = 11.92141883
ECCENTRICITY   = .0393477
INCLINATION    = 103.3399
RA_OF_ASC_NODE = 133.3010
ARG_OF_PERICENTER = 254.8129
MEAN_ANOMALY   = 100.9075

EPHEMERIS_TYPE = 0
CLASSIFICATION_TYPE = U
NORAD_CAT_ID   = 270026
ELEMENT_SET_NO = 999
REV_AT_EPOCH   = 26657
BSTAR          = .11405436E-1
MEAN_MOTION_DOT = .994E-5
MEAN_MOTION_DDOT = 0

CCSDS_OMM_VERS = 2.0
CREATION_DATE  = 
ORIGINATOR     = 

OBJECT_NAME    = UNKNOWN
OBJECT_ID      = 
CENTER_NAME    = EARTH
REF_FRAME      = TEME
TIME_SYSTEM    = UTC
MEAN_ELEMENT_THEORY = SGP/SGP4

EPOCH          = 2026-01-12T09:23:38.191200
MEAN_MOTION    = 11.80153864
ECCENTRICITY   = .04814947
INCLINATION    = 100.9381
RA_OF_ASC_NODE = 255.6016
ARG_OF_PERICENTER = 89.0192
MEAN_ANOMALY   = 276.5953

EPHEMERIS_TYPE = 0
CLASSIFICATION_TYPE = U
NORAD_CAT_ID   = 270027
ELEMENT_SET_NO = 999
REV_AT_EPOCH   = 26357
BSTAR          = .35118265E-1
MEAN_MOTION_DOT = .3012E-4
MEAN_MOTION_DDOT = 0

CCSDS_OMM_VERS = 2.0
CREATION_DATE  = 
ORIGINATOR     = 

OBJECT_NAME    = UNKNOWN
OBJECT_ID      = 
CENTER_NAME    = EARTH
REF_FRAME      = TEME
TIME_SYSTEM    = UTC
MEAN_ELEMENT_THEORY = SGP/SGP4

EPOCH          = 2026-01-18T13:56:47.880672
MEAN_MOTION    = 13.96286483
ECCENTRICITY   = .00028771
INCLINATION    = 82.5216
RA_OF_ASC_NODE = 129.3892
ARG_OF_PERICENTER = 279.7192
MEAN_ANOMALY   = 80.3650

EPHEMERIS_TYPE = 0
CLASSIFICATION_TYPE = U
NORAD_CAT_ID   = 270029
ELEMENT_SET_NO = 999
REV_AT_EPOCH   = 31202
BSTAR          = .1617128E-2
MEAN_MOTION_DOT = .224E-4
MEAN_MOTION_DDOT = 0

CCSDS_OMM_VERS = 2.0
CREATION_DATE  = 
ORIGINATOR     = 

OBJECT_NAME    = UNKNOWN
OBJECT_ID      = 
CENTER_NAME    = EARTH
REF_FRAME      = TEME
TIME_SYSTEM    = UTC
MEAN_ELEMENT_THEORY = SGP/SGP4

EPOCH          = 2026-01-18T16:19:43.382208
MEAN_MOTION    = 13.02073308
ECCENTRICITY   = .00360735
INCLINATION    = 90.2655
RA_OF_ASC_NODE = 17.9218
ARG_OF_PERICENTER = 323.3385
MEAN_ANOMALY   = 36.5271

EPHEMERIS_TYPE = 0
CLASSIFICATION_TYPE = U
NORAD_CAT_ID   = 270030
ELEMENT_SET_NO = 999
REV_AT_EPOCH   = 29187
BSTAR          = .38022205E-2
MEAN_MOTION_DOT = .1189E-4
MEAN_MOTION_DDOT = 0

CCSDS_OMM_VERS = 2.0
CREATION_DATE  = 
ORIGINATOR     = 

OBJECT_NAME    = UNKNOWN
OBJECT_ID      = 
CENTER_NAME    = EARTH
REF_FRAME      = TEME
TIME_SYSTEM    = UTC
MEAN_ELEMENT_THEORY = SGP/SGP4

EPOCH          = 2025-12-29T18:10:27.280416
MEAN_MOTION    = 13.00187896
ECCENTRICITY   = .00098342
INCLINATION    = 90.2571
RA_OF_ASC_NODE = 16.8637
ARG_OF_PERICENTER = 60.8528
MEAN_ANOMALY   = 299.3577

EPHEMERIS_TYPE = 0
CLASSIFICATION_TYPE = U
NORAD_CAT_ID   = 270031
ELEMENT_SET_NO = 999
REV_AT_EPOCH   = 28868
BSTAR          = -.71385794E-3
MEAN_MOTION_DOT = -.208E-5
MEAN_MOTION_DDOT = 0

CCSDS_OMM_VERS = 2.0
CREATION_DATE  = 
ORIGINATOR     = 

OBJECT_NAME    = UNKNOWN
OBJECT_ID      = 
CENTER_NAME    = EARTH
REF_FRAME      = TEME
TIME_SYSTEM    = UTC
MEAN_ELEMENT_THEORY = SGP/SGP4

EPOCH          = 2026-01-17T08:38:29.729184
MEAN_MOTION    = 11.80632492
ECCENTRICITY   = .02433897
INCLINATION    = 81.2998
RA_OF_ASC_NODE = 244.1568
ARG_OF_PERICENTER = 108.4620
MEAN_ANOMALY   = 254.3039

EPHEMERIS_TYPE = 0
CLASSIFICATION_TYPE = U
NORAD_CAT_ID   = 270032
ELEMENT_SET_NO = 999
REV_AT_EPOCH   = 26466
BSTAR          = .1366862E-1
MEAN_MOTION_DOT = .952E-5
MEAN_MOTION_DDOT = 0

CCSDS_OMM_VERS = 2.0
CREATION_DATE  = 
ORIGINATOR     = 

OBJECT_NAME    = UNKNOWN
OBJECT_ID      = 
CENTER_NAME    = EARTH
REF_FRAME      = TEME
TIME_SYSTEM    = UTC
MEAN_ELEMENT_THEORY = SGP/SGP4

EPOCH          = 2026-01-17T18:52:54.187392
MEAN_MOTION    = 13.72023004
ECCENTRICITY   = .05743506
INCLINATION    = 81.9663
RA_OF_ASC_NODE = 206.3594
ARG_OF_PERICENTER = 346.4800
MEAN_ANOMALY   = 12.1492

EPHEMERIS_TYPE = 0
CLASSIFICATION_TYPE = U
NORAD_CAT_ID   = 270033
ELEMENT_SET_NO = 999
REV_AT_EPOCH   = 30697
BSTAR          = .17660219E-3
MEAN_MOTION_DOT = .547E-5
MEAN_MOTION_DDOT = 0

CCSDS_OMM_VERS = 2.0
CREATION_DATE  = 
ORIGINATOR     = 

OBJECT_NAME    = UNKNOWN
OBJECT_ID      = 
CENTER_NAME    = EARTH
REF_FRAME      = TEME
TIME_SYSTEM    = UTC
MEAN_ELEMENT_THEORY = SGP/SGP4

EPOCH          = 2026-01-07T12:31:33.059424
MEAN_MOTION    = 13.26534789
ECCENTRICITY   = .06254169
INCLINATION    = 99.3504
RA_OF_ASC_NODE = 283.9219
ARG_OF_PERICENTER = 222.0028
MEAN_ANOMALY   = 133.1504

EPHEMERIS_TYPE = 0
CLASSIFICATION_TYPE = U
NORAD_CAT_ID   = 270034
ELEMENT_SET_NO = 999
REV_AT_EPOCH   = 8200
BSTAR          = .24554137E-2
MEAN_MOTION_DOT = .3139E-4
MEAN_MOTION_DDOT = 0

CCSDS_OMM_VERS = 2.0
CREATION_DATE  = 
ORIGINATOR     = 

OBJECT_NAME    = UNKNOWN
OBJECT_ID      = 
CENTER_NAME    = EARTH
REF_FRAME      = TEME
TIME_SYSTEM    = UTC
MEAN_ELEMENT_THEORY = SGP/SGP4

EPOCH          = 2026-01-18T23:28:06.072384
MEAN_MOTION    = 14.00346262
ECCENTRICITY   = .00886302
INCLINATION    = 82.4428
RA_OF_ASC_NODE = 282.2959
ARG_OF_PERICENTER = 204.0450
MEAN_ANOMALY   = 155.6570

EPHEMERIS_TYPE = 0
CLASSIFICATION_TYPE = U
NORAD_CAT_ID   = 270035
ELEMENT_SET_NO = 999
REV_AT_EPOCH   = 31255
BSTAR          = .11279622E-2
MEAN_MOTION_DOT = .1741E-4
MEAN_MOTION_DDOT = 0

